[{"OBJECT_NAME":"STARLINK-33769","OBJECT_ID":"2025-089X","EPOCH":"2026-03-09T23:17:37.927968","MEAN_MOTION":15.2759033,"ECCENTRICITY":8.685e-5,"INCLINATION":42.9971,"RA_OF_ASC_NODE":43.3742,"ARG_OF_PERICENTER":154.0661,"MEAN_ANOMALY":206.0235,"EPHEMERIS_TYPE":0,"CLASSIFICATION_TYPE":"U","NORAD_CAT_ID":63773,"ELEMENT_SET_NO":999,"REV_AT_EPOCH":4899,"BSTAR":0.00089490488,"MEAN_MOTION_DOT":0.00024453,"MEAN_MOTION_DDOT":0},{"OBJECT_NAME":"COSMOS 1174","OBJECT_ID":"1980-030A","EPOCH":"2026-03-09T17:59:04.929504","MEAN_MOTION":14.57287568,"ECCENTRICITY":0.04764693,"INCLINATION":66.08,"RA_OF_ASC_NODE":145.2035,"ARG_OF_PERICENTER":169.2768,"MEAN_ANOMALY":191.8955,"EPHEMERIS_TYPE":0,"CLASSIFICATION_TYPE":"U","NORAD_CAT_ID":11765,"ELEMENT_SET_NO":999,"REV_AT_EPOCH":36443,"BSTAR":0.00027813385,"MEAN_MOTION_DOT":6.298e-5,"MEAN_MOTION_DDOT":0}]
